{
  "norad_id": 59077,
  "name": "STARLINK-31281",
  "history": [
    {
      "epoch": "2026-04-14T16:59:06.758304Z",
      "apogee_km": 483.5355840095899,
      "perigee_km": 482.63127515697124,
      "latitude_deg": 4.198959573109719e-05,
      "longitude_deg": 9.325914768848746,
      "height_km": 482.82217906513864,
      "semi_major_axis_km": 6861.22042958328,
      "eccentricity": 6.59e-05,
      "inclination_deg": 43.0036,
      "raan_deg": 106.9843,
      "arg_perigee_deg": 274.783,
      "mean_anomaly_deg": 85.2947,
      "mean_motion_rev_day": 15.27568534
    },
    {
      "epoch": "2026-04-15T16:31:27.454944Z",
      "apogee_km": 483.7457652356643,
      "perigee_km": 482.43252655134074,
      "latitude_deg": -2.9262313658459396e-06,
      "longitude_deg": 9.734016930585474,
      "height_km": 482.7733525417375,
      "semi_major_axis_km": 6861.226145893503,
      "eccentricity": 9.57e-05,
      "inclination_deg": 43.0027,
      "raan_deg": 101.4454,
      "arg_perigee_deg": 278.0915,
      "mean_anomaly_deg": 81.9828,
      "mean_motion_rev_day": 15.27566625
    },
    {
      "epoch": "2026-04-16T08:12:59.953248Z",
      "apogee_km": 483.68308987448654,
      "perigee_km": 482.3588863827781,
      "latitude_deg": 4.470317293729915e-07,
      "longitude_deg": 130.01064984704843,
      "height_km": 482.6733489070844,
      "semi_major_axis_km": 6861.1579881286325,
      "eccentricity": 9.65e-05,
      "inclination_deg": 43.0023,
      "raan_deg": 97.7519,
      "arg_perigee_deg": 280.8141,
      "mean_anomaly_deg": 79.2602,
      "mean_motion_rev_day": 15.27589387
    },
    {
      "epoch": "2026-04-17T10:53:41.696448Z",
      "apogee_km": 483.37584678201983,
      "perigee_km": 482.7962106605546,
      "latitude_deg": 4.6272154576437655e-05,
      "longitude_deg": 82.46313319403134,
      "height_km": 482.7999926649584,
      "semi_major_axis_km": 6861.223028721287,
      "eccentricity": 4.224e-05,
      "inclination_deg": 43.0018,
      "raan_deg": 91.4739,
      "arg_perigee_deg": 282.3644,
      "mean_anomaly_deg": 77.7161,
      "mean_motion_rev_day": 15.27567666
    },
    {
      "epoch": "2026-04-18T15:08:30.585120Z",
      "apogee_km": 483.45729837819,
      "perigee_km": 482.71628620862157,
      "latitude_deg": 1.2851646146202745e-05,
      "longitude_deg": 10.95243586377554,
      "height_km": 482.7682466949577,
      "semi_major_axis_km": 6861.2237922934055,
      "eccentricity": 5.4e-05,
      "inclination_deg": 43.0036,
      "raan_deg": 84.827,
      "arg_perigee_deg": 284.838,
      "mean_anomaly_deg": 75.2412,
      "mean_motion_rev_day": 15.27567411
    },
    {
      "epoch": "2026-04-19T14:40:51.470112Z",
      "apogee_km": 483.6725248431112,
      "perigee_km": 482.5376753997498,
      "latitude_deg": -5.634447905162689e-05,
      "longitude_deg": 11.35822257908654,
      "height_km": 482.90082380711056,
      "semi_major_axis_km": 6861.24210012143,
      "eccentricity": 8.27e-05,
      "inclination_deg": 42.9961,
      "raan_deg": 79.2866,
      "arg_perigee_deg": 267.9853,
      "mean_anomaly_deg": 92.0903,
      "mean_motion_rev_day": 15.27561297
    },
    {
      "epoch": "2026-04-20T14:13:11.772768Z",
      "apogee_km": 483.82597962284945,
      "perigee_km": 482.26163039930816,
      "latitude_deg": -2.9911342263282723e-05,
      "longitude_deg": 11.769743309873562,
      "height_km": 482.7025610810056,
      "semi_major_axis_km": 6861.1808050110785,
      "eccentricity": 0.000114,
      "inclination_deg": 43.0005,
      "raan_deg": 73.7494,
      "arg_perigee_deg": 278.6613,
      "mean_anomaly_deg": 81.4109,
      "mean_motion_rev_day": 15.27581767
    },
    {
      "epoch": "2026-04-21T13:45:32.205024Z",
      "apogee_km": 483.7274352214381,
      "perigee_km": 482.35245536160073,
      "latitude_deg": 1.1482620445772338e-05,
      "longitude_deg": 12.17963790394025,
      "height_km": 482.8365958835437,
      "semi_major_axis_km": 6861.176945291519,
      "eccentricity": 0.0001002,
      "inclination_deg": 43.0002,
      "raan_deg": 68.2111,
      "arg_perigee_deg": 268.3103,
      "mean_anomaly_deg": 91.7634,
      "mean_motion_rev_day": 15.27583056
    },
    {
      "epoch": "2026-04-22T07:01:15.546720Z",
      "apogee_km": 483.6858222796591,
      "perigee_km": 482.40730933400755,
      "latitude_deg": 2.4091131259446e-05,
      "longitude_deg": 108.47763235411372,
      "height_km": 482.7452384784901,
      "semi_major_axis_km": 6861.183565806833,
      "eccentricity": 9.317e-05,
      "inclination_deg": 43.0024,
      "raan_deg": 64.1486,
      "arg_perigee_deg": 276.9991,
      "mean_anomaly_deg": 83.0755,
      "mean_motion_rev_day": 15.27580845
    },
    {
      "epoch": "2026-04-23T12:50:13.841088Z",
      "apogee_km": 483.7429373492005,
      "perigee_km": 482.34874499587295,
      "latitude_deg": -1.5093854928990419e-05,
      "longitude_deg": 12.994387169126606,
      "height_km": 482.8112766212181,
      "semi_major_axis_km": 6861.182841172536,
      "eccentricity": 0.0001016,
      "inclination_deg": 43.0023,
      "raan_deg": 57.1328,
      "arg_perigee_deg": 270.9204,
      "mean_anomaly_deg": 89.1531,
      "mean_motion_rev_day": 15.27581087
    },
    {
      "epoch": "2026-04-24T12:22:34.404672Z",
      "apogee_km": 483.855314972674,
      "perigee_km": 482.21961098070005,
      "latitude_deg": 1.4085615230231557e-05,
      "longitude_deg": 13.403021147943265,
      "height_km": 482.727444437393,
      "semi_major_axis_km": 6861.174462976686,
      "eccentricity": 0.0001192,
      "inclination_deg": 43.0023,
      "raan_deg": 51.5938,
      "arg_perigee_deg": 276.0928,
      "mean_anomaly_deg": 83.9788,
      "mean_motion_rev_day": 15.27583885
    },
    {
      "epoch": "2026-04-25T11:54:55.319040Z",
      "apogee_km": 483.67910886196023,
      "perigee_km": 482.43037196520527,
      "latitude_deg": 3.836059251838853e-05,
      "longitude_deg": 13.809185119439054,
      "height_km": 482.8536233896503,
      "semi_major_axis_km": 6861.191740413582,
      "eccentricity": 9.1e-05,
      "inclination_deg": 43.0034,
      "raan_deg": 46.0538,
      "arg_perigee_deg": 267.9594,
      "mean_anomaly_deg": 92.1154,
      "mean_motion_rev_day": 15.27578115
    },
    {
      "epoch": "2026-04-26T11:27:15.836832Z",
      "apogee_km": 483.7978115856531,
      "perigee_km": 482.28752871665984,
      "latitude_deg": 2.6664861959350254e-05,
      "longitude_deg": 14.218268360702766,
      "height_km": 482.7924518304134,
      "semi_major_axis_km": 6861.179670151157,
      "eccentricity": 0.00011006,
      "inclination_deg": 43.0037,
      "raan_deg": 40.5151,
      "arg_perigee_deg": 272.055,
      "mean_anomaly_deg": 88.0176,
      "mean_motion_rev_day": 15.27582146
    },
    {
      "epoch": "2026-04-27T18:50:24.444960Z",
      "apogee_km": 483.7148605372613,
      "perigee_km": 482.44827958922724,
      "latitude_deg": 3.80319220705297e-05,
      "longitude_deg": -105.24015167897086,
      "height_km": 482.6713949215326,
      "semi_major_axis_km": 6861.218570063244,
      "eccentricity": 9.23e-05,
      "inclination_deg": 42.9987,
      "raan_deg": 33.1315,
      "arg_perigee_deg": 287.109,
      "mean_anomaly_deg": 72.9661,
      "mean_motion_rev_day": 15.27569155
    },
    {
      "epoch": "2026-04-28T04:15:21.000096Z",
      "apogee_km": 483.66433264990883,
      "perigee_km": 482.477343693904,
      "latitude_deg": -2.259852616721185e-05,
      "longitude_deg": 110.92284810318604,
      "height_km": 482.68240299565315,
      "semi_major_axis_km": 6861.207838171906,
      "eccentricity": 8.65e-05,
      "inclination_deg": 43.0,
      "raan_deg": 30.9169,
      "arg_perigee_deg": 286.1086,
      "mean_anomaly_deg": 73.967,
      "mean_motion_rev_day": 15.27572739
    },
    {
      "epoch": "2026-04-29T17:55:06.346272Z",
      "apogee_km": 483.7578721976706,
      "perigee_km": 482.4226773699984,
      "latitude_deg": -1.2136440088736756e-05,
      "longitude_deg": -104.4265302284406,
      "height_km": 482.84523831246764,
      "semi_major_axis_km": 6861.227274783834,
      "eccentricity": 9.73e-05,
      "inclination_deg": 43.0019,
      "raan_deg": 22.0532,
      "arg_perigee_deg": 271.8532,
      "mean_anomaly_deg": 88.2208,
      "mean_motion_rev_day": 15.27566248
    },
    {
      "epoch": "2026-04-30T09:36:39.890880Z",
      "apogee_km": 483.7984345023251,
      "perigee_km": 482.31133977270656,
      "latitude_deg": 1.7333927792047144e-05,
      "longitude_deg": 15.846657588103891,
      "height_km": 482.7768058261185,
      "semi_major_axis_km": 6861.191887137516,
      "eccentricity": 0.00010837,
      "inclination_deg": 43.0007,
      "raan_deg": 18.3606,
      "arg_perigee_deg": 274.2108,
      "mean_anomaly_deg": 85.862,
      "mean_motion_rev_day": 15.27578066
    },
    {
      "epoch": "2026-05-02T08:41:21.778368Z",
      "apogee_km": 483.6900625804519,
      "perigee_km": 482.4440679222025,
      "latitude_deg": 4.482800658568084e-05,
      "longitude_deg": 16.66101610941093,
      "height_km": 482.7283112058275,
      "semi_major_axis_km": 6861.204065251327,
      "eccentricity": 9.08e-05,
      "inclination_deg": 43.0019,
      "raan_deg": 7.2829,
      "arg_perigee_deg": 280.6599,
      "mean_anomaly_deg": 79.4151,
      "mean_motion_rev_day": 15.27573999
    },
    {
      "epoch": "2026-05-03T00:22:56.006400Z",
      "apogee_km": 483.90135209967957,
      "perigee_km": 482.25905115029855,
      "latitude_deg": -3.3535629610156596e-05,
      "longitude_deg": 136.93243218877657,
      "height_km": 482.85336015443914,
      "semi_major_axis_km": 6861.217201624989,
      "eccentricity": 0.00011968,
      "inclination_deg": 43.0025,
      "raan_deg": 3.5915,
      "arg_perigee_deg": 270.2551,
      "mean_anomaly_deg": 89.8163,
      "mean_motion_rev_day": 15.27569612
    }
  ]
}